NORAD_CAT_ID,OBJECT_NAME,OBJECT_TYPE,EPOCH,MEAN_MOTION,ECCENTRICITY,INCLINATION,RA_OF_ASC_NODE,ARG_OF_PERICENTER,MEAN_ANOMALY,BSTAR,MEAN_MOTION_DOT,MEAN_MOTION_DDOT,TLE_LINE0,TLE_LINE1,TLE_LINE2,SEMIMAJOR_AXIS,PERIOD,APOGEE,PERIGEE,DECAYED
53819.0,STARLINK-4738,PAYLOAD,2023-08-02 02:40:16,15.08832394,0.0001035,53.2151,251.619,89.2049,270.9061,0.00016766,2.381e-05,0.0,0 STARLINK-4738,1 53819U 22114B   23214.11130123  .00002381  00000-0  16766-3 0  9993,2 53819  53.2151 251.6190 0001035  89.2049 270.9061 15.08832394 48785,6917.904,95.438,540.485,539.053,0.0
53819.0,STARLINK-4738,PAYLOAD,2023-08-03 02:31:02,15.08843187,0.0001095,53.2148,247.1581,89.1153,270.9964,6.8243e-05,7.99e-06,0.0,0 STARLINK-4738,1 53819U 22114B   23215.10489554  .00000799  00000-0  68243-4 0  9997,2 53819  53.2148 247.1581 0001095  89.1153 270.9964 15.08843187 48937,6917.871,95.437,540.493,538.978,0.0
53819.0,STARLINK-4738,PAYLOAD,2023-08-04 02:21:50,15.08831571,0.0001107,53.2156,242.6986,92.5964,267.5155,1.1718e-05,-1.01e-06,0.0,0 STARLINK-4738,1 53819U 22114B   23216.09850509 -.00000101  00000-0  11718-4 0  9991,2 53819  53.2156 242.6986 0001107  92.5964 267.5155 15.08831571 49082,6917.906,95.438,540.537,539.005,0.0
53819.0,STARLINK-4738,PAYLOAD,2023-08-05 00:37:14,15.08837073,0.000128,53.2158,238.5342,115.6037,244.5087,3.5684e-05,2.8e-06,0.0,0 STARLINK-4738,1 53819U 22114B   23217.02586331  .00000280  00000-0  35684-4 0  9999,2 53819  53.2158 238.5342 0001280 115.6037 244.5087 15.08837073 49222,6917.889,95.438,540.64,538.869,0.0
53819.0,STARLINK-4738,PAYLOAD,2023-08-06 02:03:24,15.08838896,0.0001093,53.2153,233.7783,93.8771,266.2346,0.00017321,2.47e-05,0.0,0 STARLINK-4738,1 53819U 22114B   23218.08570146  .00002470  00000-0  17321-3 0  9993,2 53819  53.2153 233.7783 0001093  93.8771 266.2346 15.08838896 49387,6917.884,95.438,540.505,538.993,0.0
53819.0,STARLINK-4738,PAYLOAD,2023-08-07 01:54:11,15.08833101,0.0001188,53.2151,229.3177,86.1098,274.003,-4.8677e-05,-1.062e-05,0.0,0 STARLINK-4738,1 53819U 22114B   23219.07930549 -.00001062  00000-0 -48677-4 0  9997,2 53819  53.2151 229.3177 0001188  86.1098 274.0030 15.08833101 49533,6917.901,95.438,540.588,538.945,0.0
53819.0,STARLINK-4738,PAYLOAD,2023-08-08 06:31:08,15.08844808,0.0001175,53.216,223.965,84.2083,275.9043,7.6371e-05,9.28e-06,0.0,0 STARLINK-4738,1 53819U 22114B   23220.27162255  .00000928  00000-0  76371-4 0  9992,2 53819  53.2160 223.9650 0001175  84.2083 275.9043 15.08844808 49718,6917.866,95.437,540.544,538.918,0.0
53819.0,STARLINK-4738,PAYLOAD,2023-08-09 00:00:23,15.08836535,0.0001092,53.2154,220.6933,85.5351,274.5766,0.00011416,1.529e-05,0.0,0 STARLINK-4738,1 53819U 22114B   23221.00026674  .00001529  00000-0  11416-3 0  9994,2 53819  53.2154 220.6933 0001092  85.5351 274.5766 15.08836535 49826,6917.891,95.438,540.511,539.001,0.0
53819.0,STARLINK-4738,PAYLOAD,2023-08-10 09:23:28,15.08845577,0.0001146,53.2152,214.448,85.4523,274.66,7.0366e-05,8.32e-06,0.0,0 STARLINK-4738,1 53819U 22114B   23222.39130175  .00000832  00000-0  70366-4 0  9995,2 53819  53.2152 214.4480 0001146  85.4523 274.6600 15.08845577 50031,6917.863,95.437,540.521,538.936,0.0
53819.0,STARLINK-4738,PAYLOAD,2023-08-10 23:41:57,15.08836557,0.0001221,53.2152,211.7711,87.5191,272.5941,1.7005e-05,-1.7e-07,0.0,0 STARLINK-4738,1 53819U 22114B   23222.98746903 -.00000017  00000-0  17005-4 0  9999,2 53819  53.2152 211.7711 0001221  87.5191 272.5941 15.08836557 50129,6917.891,95.438,540.601,538.911,0.0
53819.0,STARLINK-4738,PAYLOAD,2023-08-12 02:43:30,15.08841289,0.0001359,53.2141,206.7167,84.8867,275.228,-7.4435e-06,-4.06e-06,0.0,0 STARLINK-4738,1 53819U 22114B   23224.11354789 -.00000406  00000-0 -74435-5 0  9997,2 53819  53.2141 206.7167 0001359  84.8867 275.2280 15.08841289 50290,6917.876,95.437,540.682,538.801,0.0
53819.0,STARLINK-4738,PAYLOAD,2023-08-13 07:20:26,15.08841045,0.0001042,53.2161,201.3638,84.8133,275.2978,5.7515e-05,6.28e-06,0.0,0 STARLINK-4738,1 53819U 22114B   23225.30586705  .00000628  00000-0  57515-4 0  9997,2 53819  53.2161 201.3638 0001042  84.8133 275.2978 15.08841045 50475,6917.877,95.437,540.463,539.021,0.0
53819.0,STARLINK-4738,PAYLOAD,2023-08-14 08:46:37,15.08839359,0.0001145,53.2157,196.6062,89.5268,270.5855,4.1785e-05,3.77e-06,0.0,0 STARLINK-4738,1 53819U 22114B   23226.36571087  .00000377  00000-0  41785-4 0  9994,2 53819  53.2157 196.6062 0001145  89.5268 270.5855 15.08839359 50637,6917.882,95.438,540.539,538.955,0.0
53819.0,STARLINK-4738,PAYLOAD,2023-08-16 02:06:39,15.08838914,0.0001345,53.217,188.8743,86.6146,273.5,5.7506e-05,6.27e-06,0.0,0 STARLINK-4738,1 53819U 22114B   23228.08795426  .00000627  00000-0  57506-4 0  9996,2 53819  53.2170 188.8743 0001345  86.6146 273.5000 15.08838914 50895,6917.884,95.438,540.679,538.818,0.0
53819.0,STARLINK-4738,PAYLOAD,2023-08-17 06:43:34,15.0884956,0.0001283,53.2173,183.5199,100.949,259.1647,0.00010248,1.344e-05,0.0,0 STARLINK-4738,1 53819U 22114B   23229.28026494  .00001344  00000-0  10248-3 0  9999,2 53819  53.2173 183.5199 0001283 100.9490 259.1647 15.08849560 51075,6917.851,95.437,540.604,538.829,0.0
53819.0,STARLINK-4738,PAYLOAD,2023-08-18 03:23:36,15.08840166,0.0001365,53.2169,179.6551,102.3495,257.765,4.7307e-05,4.65e-06,0.0,0 STARLINK-4738,1 53819U 22114B   23230.14139327  .00000465  00000-0  47307-4 0  9996,2 53819  53.2169 179.6551 0001365 102.3495 257.7650 15.08840166 51206,6917.88,95.438,540.689,538.801,0.0
53819.0,STARLINK-4738,PAYLOAD,2023-08-19 04:49:47,15.08836461,0.0001323,53.2173,174.8989,94.297,265.8174,-2.9006e-05,-7.49e-06,0.0,0 STARLINK-4738,1 53819U 22114B   23231.20124864 -.00000749  00000-0 -29006-4 0  9997,2 53819  53.2173 174.8989 0001323  94.2970 265.8174 15.08836461 51365,6917.891,95.438,540.671,538.841,0.0
53819.0,STARLINK-4738,PAYLOAD,2023-08-20 03:05:10,15.0885193,0.0001256,53.2168,170.7363,98.4023,261.7112,0.00022623,3.316e-05,0.0,0 STARLINK-4738,1 53819U 22114B   23232.12859586  .00003316  00000-0  22623-3 0  9993,2 53819  53.2168 170.7363 0001256  98.4023 261.7112 15.08851930 51501,6917.844,95.437,540.578,538.84,0.0
53819.0,STARLINK-4738,PAYLOAD,2023-08-21 02:55:59,15.08834896,0.000148,53.2172,166.2777,91.2884,268.8278,0.00075649,0.0001177,0.0,0 STARLINK-4738,1 53819U 22114B   23233.12221235  .00011770  00000-0  75649-3 0  9997,2 53819  53.2172 166.2777 0001480  91.2884 268.8278 15.08834896 51659,6917.896,95.438,540.785,538.737,0.0
53819.0,STARLINK-4738,PAYLOAD,2023-08-22 04:22:08,15.08849132,0.0001481,53.2172,161.5183,88.4139,271.7023,-0.00012184,-2.227e-05,0.0,0 STARLINK-4738,1 53819U 22114B   23234.18203899 -.00002227  00000-0 -12184-3 0  9994,2 53819  53.2172 161.5183 0001481  88.4139 271.7023 15.08849132 51818,6917.852,95.437,540.742,538.693,0.0
53819.0,STARLINK-4738,PAYLOAD,2023-08-23 01:02:09,15.0884095,0.000145,53.217,157.6527,87.356,272.7598,-1.7738e-05,-5.7e-06,0.0,0 STARLINK-4738,1 53819U 22114B   23235.04316348 -.00000570  00000-0 -17738-4 0  9994,2 53819  53.2170 157.6527 0001450  87.3560 272.7598 15.08840950 51947,6917.877,95.437,540.746,538.739,0.0
53819.0,STARLINK-4738,PAYLOAD,2023-08-24 04:03:42,15.08841037,0.0001475,53.2166,152.5963,78.635,281.4808,0.0001103,1.468e-05,0.0,0 STARLINK-4738,1 53819U 22114B   23236.16924651  .00001468  00000-0  11030-3 0  9993,2 53819  53.2166 152.5963 0001475  78.6350 281.4808 15.08841037 52654,6917.877,95.437,540.763,538.722,0.0
53819.0,STARLINK-4738,PAYLOAD,2023-08-25 18:12:57,15.08852613,0.000117,53.2157,145.4599,95.1199,264.9926,-5.5426e-05,-1.17e-05,0.0,0 STARLINK-4738,1 53819U 22114B   23237.75899998 -.00001170  00000-0 -55426-4 0  9994,2 53819  53.2157 145.4599 0001170  95.1199 264.9926 15.08852613 52353,6917.842,95.437,540.516,538.897,0.0
53819.0,STARLINK-4738,PAYLOAD,2023-08-26 03:45:16,15.08856951,0.0001146,53.2168,143.6758,97.5416,262.5706,-6.3627e-05,-1.301e-05,0.0,0 STARLINK-4738,1 53819U 22114B   23238.15643673 -.00001301  00000-0 -63627-4 0  9994,2 53819  53.2168 143.6758 0001146  97.5416 262.5706 15.08856951 52958,6917.829,95.436,540.486,538.901,0.0
53819.0,STARLINK-4738,PAYLOAD,2023-08-26 18:03:45,15.08829995,9.34e-05,53.217,141.0011,91.2193,268.8906,1.9448e-05,2.2e-07,0.0,0 STARLINK-4738,1 53819U 22114B   23238.75261225  .00000022  00000-0  19448-4 0  9998,2 53819  53.2170 141.0011 0000934  91.2193 268.8906 15.08829995 52502,6917.911,95.438,540.422,539.13,0.0
53819.0,STARLINK-4738,PAYLOAD,2023-08-26 21:14:31,15.08831763,0.0001122,53.2174,140.4065,95.6324,264.4796,2.0935e-05,4.5e-07,0.0,0 STARLINK-4738,1 53819U 22114B   23238.88509219  .00000045  00000-0  20935-4 0  9998,2 53819  53.2174 140.4065 0001122  95.6324 264.4796 15.08831763 53069,6917.906,95.438,540.547,538.994,0.0
53819.0,STARLINK-4738,PAYLOAD,2023-08-27 02:00:41,15.08833618,0.0001133,53.2178,139.5148,95.101,265.0112,4.4785e-05,4.25e-06,0.0,0 STARLINK-4738,1 53819U 22114B   23239.08381152  .00000425  00000-0  44785-4 0  9996,2 53819  53.2178 139.5148 0001133  95.1010 265.0112 15.08833618 53096,6917.9,95.438,540.549,538.981,0.0
53819.0,STARLINK-4738,PAYLOAD,2023-08-27 21:05:18,15.08841987,0.0001092,53.2174,135.9459,93.3898,266.7219,0.00010053,1.313e-05,0.0,0 STARLINK-4738,1 53819U 22114B   23239.87868663  .00001313  00000-0  10053-3 0  9997,2 53819  53.2174 135.9459 0001092  93.3898 266.7219 15.08841987 53213,6917.874,95.437,540.495,538.984,0.0
53819.0,STARLINK-4738,PAYLOAD,2023-08-28 01:51:27,15.08850646,0.0001147,53.2169,135.0539,92.0971,268.0153,0.0002576,3.815e-05,0.0,0 STARLINK-4738,1 53819U 22114B   23240.07740241  .00003815  00000-0  25760-3 0  9992,2 53819  53.2169 135.0539 0001147  92.0971 268.0153 15.08850646 52703,6917.848,95.437,540.506,538.919,0.0
53819.0,STARLINK-4738,PAYLOAD,2023-08-28 09:48:23,15.08845612,0.0001088,53.2167,133.5662,82.3214,277.7902,0.00013817,1.912e-05,0.0,0 STARLINK-4738,1 53819U 22114B   23240.40860374  .00001912  00000-0  13817-3 0  9995,2 53819  53.2167 133.5662 0001088  82.3214 277.7902 15.08845612 52758,6917.863,95.437,540.481,538.976,0.0
